     2.100          NAVIGATION                              RINEX VERSION / TYPE
fic2rin                                 08/31/2010 00:20:33 PGM / RUN BY / DATE
                                                            END OF HEADER
29 10  8 30 14  0  0.0  .145732890815D-03  .284217094304D-11  .000000000000D+00
     .310000000000D+02 -.358750000000D+02  .466519432407D-08  .246352660407D+01
    -.185333192348D-05  .274819554761D-02  .709295272827D-05  .515367765999D+04
     .136800000000D+06  .428408384323D-07  .288374042602D+01 -.372529029846D-08
     .961158141695D+00  .240718750000D+03 -.125260137926D+01 -.802569144512D-08
    -.358586365133D-09  .100000000000D+01  .159900000000D+04  .000000000000D+00
     .240000000000D+01  .000000000000D+00 -.884756445885D-08  .310000000000D+02
     .129606000000D+06  .400000000000D+01
30 10  8 30 14  0  0.0  .273980665952D-03  .341060513165D-11  .000000000000D+00
     .720000000000D+02  .968750000000D+00  .493163399378D-08  .818188755314D+00
    -.149011611938D-07  .126057061134D-01  .706128776073D-05  .515369630432D+04
     .136800000000D+06 -.236555933952D-06  .175968225417D+01 -.298023223877D-07
     .956967023301D+00  .245000000000D+03  .150849710458D+01 -.842463663422D-08
     .235724104569D-09  .100000000000D+01  .159900000000D+04  .000000000000D+00
     .240000000000D+01  .000000000000D+00 -.791624188423D-08  .720000000000D+02
     .129606000000D+06  .400000000000D+01
31 10  8 30 14  0  0.0 -.132299028337D-04  .295585778076D-11  .000000000000D+00
     .110000000000D+02 -.376875000000D+02  .411195699380D-08 -.308495195023D+01
    -.181794166565D-05  .736231205519D-02  .936910510063D-05  .515375529289D+04
     .136800000000D+06  .502914190292D-07  .760434073486D+00  .165775418282D-06
     .977774153955D+00  .206125000000D+03 -.105128358428D+01 -.768424865123D-08
     .150363406097D-09  .100000000000D+01  .159900000000D+04  .000000000000D+00
     .240000000000D+01  .000000000000D+00 -.130385160446D-07  .110000000000D+02
     .129606000000D+06  .400000000000D+01
32 10  8 30 14  0  0.0 -.735260546207D-04 -.898126018001D-11  .000000000000D+00
     .110000000000D+03  .855312500000D+02  .452018828399D-08 -.229168383616D+01
     .473670661449D-05  .126516210148D-01  .427849590778D-05  .515364910507D+04
     .136800000000D+06 -.558793544769D-08 -.125197464614D+01  .219792127609D-06
     .957677858121D+00  .294875000000D+03 -.945203036323D+00 -.815641117584D-08
     .242867259253D-09  .100000000000D+01  .159900000000D+04  .000000000000D+00
     .340000000000D+01  .000000000000D+00 -.325962901115D-08  .110000000000D+03
     .129606000000D+06  .400000000000D+01
 3 10  8 30 13 59 44.0  .601790845394D-03  .511590769747D-11  .000000000000D+00
     .330000000000D+02 -.365000000000D+02  .543701218767D-08 -.153415268661D+01
    -.181794166565D-05  .135573873995D-01  .600703060627D-05  .515359556007D+04
     .136784000000D+06  .331550836563D-06  .272809618134D+01  .633299350739D-07
     .927852002817D+00  .244093750000D+03  .102648330316D+01 -.836106255753D-08
    -.289654922433D-09  .100000000000D+01  .159900000000D+04  .000000000000D+00
     .240000000000D+01  .000000000000D+00 -.465661287308D-08  .330000000000D+02
     .134766000000D+06  .400000000000D+01
27 10  8 30 13 59 44.0  .184370204806D-03  .341060513165D-11  .000000000000D+00
     .420000000000D+02 -.351250000000D+02  .415374444870D-08 -.633058559967D+00
    -.196136534214D-05  .215507380199D-01  .933930277824D-05  .515359149551D+04
     .136784000000D+06 -.301748514175D-06  .704700537332D+00  .931322574615D-08
     .979272299102D+00  .216718750000D+03 -.137911719580D+01 -.818855537191D-08
     .252510518077D-09  .100000000000D+01  .159900000000D+04  .000000000000D+00
     .240000000000D+01  .000000000000D+00 -.419095158577D-08  .420000000000D+02
     .134766000000D+06  .400000000000D+01
32 10  8 30 13 59 44.0 -.735283829272D-04 -.898126018001D-11  .000000000000D+00
     .100000000000D+01  .855312500000D+02  .452054544172D-08 -.229401769228D+01
     .473670661449D-05  .126516234595D-01  .427849590778D-05  .515364911842D+04
     .136784000000D+06 -.558793544769D-08 -.125197448521D+01  .219792127609D-06
     .957677836177D+00  .294875000000D+03 -.945203045101D+00 -.815641117584D-08
     .242867259253D-09  .100000000000D+01  .159900000000D+04  .000000000000D+00
     .240000000000D+01  .000000000000D+00 -.325962901115D-08  .100000000000D+01
     .136236000000D+06  .400000000000D+01
 3 10  8 30 15 59 44.0  .601827632636D-03  .511590769747D-11  .000000000000D+00
     .340000000000D+02 -.340625000000D+02  .571666669354D-08 -.483921446596D+00
    -.166520476341D-05  .135575123131D-01  .597536563873D-05  .515359555244D+04
     .143984000000D+06 -.109896063805D-06  .272803433648D+01  .171363353729D-06
     .927847782299D+00  .244343750000D+03  .102648848774D+01 -.882393898105D-08
    -.311798701953D-09  .100000000000D+01  .159900000000D+04  .000000000000D+00
     .240000000000D+01  .000000000000D+00 -.465661287308D-08  .340000000000D+02
     .136806000000D+06  .400000000000D+01
27 10  8 30 15 59 44.0  .184394884855D-03  .341060513165D-11  .000000000000D+00
     .470000000000D+02 -.479375000000D+02  .417945980556D-08  .417130464621D+00
    -.264495611191D-05  .215508304536D-01  .925920903683D-05  .515359149742D+04
     .143984000000D+06 -.199303030968D-06  .704642360006D+00 -.221654772758D-06
     .979273460659D+00  .218906250000D+03 -.137907697287D+01 -.821962809479D-08
     .685742849656D-10  .100000000000D+01  .159900000000D+04  .000000000000D+00
     .240000000000D+01  .000000000000D+00 -.419095158577D-08  .470000000000D+02
     .136806000000D+06  .400000000000D+01
32 10  8 30 15 59 44.0 -.735931098461D-04 -.898126018001D-11  .000000000000D+00
     .500000000000D+01  .687187500000D+02  .462019244956D-08 -.124401883095D+01
     .368803739548D-05  .126517821336D-01  .499747693539D-05  .515364443398D+04
     .143984000000D+06 -.176951289177D-06 -.125203445315D+01  .596046447754D-07
     .957678927514D+00  .286687500000D+03 -.945004408621D+00 -.835070498324D-08
     .286083345091D-09  .100000000000D+01  .159900000000D+04  .000000000000D+00
     .240000000000D+01  .000000000000D+00 -.325962901115D-08  .500000000000D+01
     .136806000000D+06  .400000000000D+01
 1 10  8 30 16  0  0.0 -.157364644110D-03 -.397903932026D-11  .000000000000D+00
     .400000000000D+01  .218750000000D+01  .478984237330D-08  .108462072093D+01
     .275671482086D-06  .450735574123D-02  .691600143909D-05  .515361692810D+04
     .144000000000D+06 -.558793544769D-07  .179975084744D+01  .987201929092D-07
     .965532629555D+00  .250312500000D+03  .950975876374D+00 -.820462746995D-08
     .288940606965D-09  .100000000000D+01  .159900000000D+04  .000000000000D+00
     .240000000000D+01  .630000000000D+02 -.190921127796D-07  .400000000000D+01
     .136806000000D+06  .400000000000D+01
 2 10  8 30 16  0  0.0  .284766312689D-03  .284217094304D-11  .000000000000D+00
     .860000000000D+02  .330937500000D+02  .489627537809D-08 -.356398781074D+00
     .158697366714D-05  .967016327195D-02  .105034559965D-04  .515363026428D+04
     .144000000000D+06  .227242708206D-06 -.240177453955D+01 -.614672899246D-07
     .939757250627D+00  .169437500000D+03  .312539765891D+01 -.823069998455D-08
    -.297512392585D-09  .100000000000D+01  .159900000000D+04  .000000000000D+00
     .240000000000D+01  .000000000000D+00 -.172294676304D-07  .860000000000D+02
     .136806000000D+06  .400000000000D+01
 4 10  8 30 16  0  0.0  .158236827701D-03  .864019966684D-11  .000000000000D+00
     .580000000000D+02  .378750000000D+02  .477162732886D-08  .268741924676D+01
     .177510082722D-05  .922125938814D-02  .108927488327D-04  .515374433517D+04
     .144000000000D+06 -.167638063431D-07 -.238403658177D+01 -.150874257088D-06
     .938872218836D+00  .157406250000D+03  .633771804214D+00 -.795890294883D-08
    -.243938732456D-09  .100000000000D+01  .159900000000D+04  .000000000000D+00
     .240000000000D+01  .000000000000D+00 -.605359673500D-08  .580000000000D+02
     .136806000000D+06  .400000000000D+01
 5 10  8 30 16  0  0.0 -.302130356431D-04 -.466116034659D-11  .000000000000D+00
     .750000000000D+02  .855312500000D+02  .451875965305D-08  .130937147187D+01
     .452809035778D-05  .188521319069D-02  .579655170441D-05  .515377926636D+04
     .144000000000D+06 -.465661287308D-07 -.134108740416D+01  .000000000000D+00
     .956854282056D+00  .264468750000D+03  .172434410014D+00 -.820641325862D-08
     .150363406097D-09  .100000000000D+01  .159900000000D+04  .000000000000D+00
     .240000000000D+01  .000000000000D+00 -.884756445885D-08  .750000000000D+02
     .136806000000D+06  .400000000000D+01
 6 10  8 30 16  0  0.0  .513436272740D-03 -.150066625793D-10  .000000000000D+00
     .560000000000D+02 -.397500000000D+02  .539415325956D-08  .171879886381D+01
    -.207312405109D-05  .621964945458D-02  .593066215515D-05  .515365242004D+04
     .144000000000D+06  .689178705215D-07  .279940487671D+01 -.279396772385D-07
     .935168714445D+00  .243968750000D+03 -.971842979355D+00 -.838927801853D-08
    -.403231081907D-09  .100000000000D+01  .159900000000D+04  .000000000000D+00
     .240000000000D+01  .000000000000D+00 -.512227416039D-08  .560000000000D+02
     .136806000000D+06  .400000000000D+01
 7 10  8 30 16  0  0.0 -.194180756807D-05  .000000000000D+00  .000000000000D+00
     .930000000000D+02 -.479687500000D+02  .413302930012D-08 -.199706467367D+01
    -.263191759586D-05  .399644370191D-02  .100433826447D-04  .515370178032D+04
     .144000000000D+06 -.204890966415D-07  .760351421540D+00 -.745058059692D-07
     .972547419761D+00  .195718750000D+03  .307021702826D+01 -.782925469131D-08
     .204294223960D-09  .100000000000D+01  .159900000000D+04  .000000000000D+00
     .240000000000D+01  .000000000000D+00 -.102445483208D-07  .930000000000D+02
     .136806000000D+06  .400000000000D+01
